{"type": "FeatureCollection", "features": [ {"type": "Feature", "properties": {"norad_id": 52912, "name": "GAOFEN-12 03", "group": "resource", "lat": -46.56313332230237, "lon": 52.192426848696485, "alt_km": 638.7157963022082, "timestamp": "2025-12-19T08:58:48.995298+00:00", "meta": {"OBJECT_NAME": "GAOFEN-12 03", "OBJECT_ID": "2022-069A", "EPOCH": "2025-12-18T23:50:31.839648", "MEAN_MOTION": 14.79624519, "ECCENTRICITY": 0.000202, "INCLINATION": 97.8489, "RA_OF_ASC_NODE": 240.1975, "ARG_OF_PERICENTER": 55.0637, "MEAN_ANOMALY": 305.0764, "EPHEMERIS_TYPE": 0, "CLASSIFICATION_TYPE": "U", "NORAD_CAT_ID": 52912, "ELEMENT_SET_NO": 999, "REV_AT_EPOCH": 18796, "BSTAR": 0.00016857707, "MEAN_MOTION_DOT": 1.213e-05, "MEAN_MOTION_DDOT": 0}, "tle": {"line1": "1 52912U 22069A   25352.99342407  .00001213  00000+0  16858-3 0  9990", "line2": "2 52912  97.8489 240.1975 0002020  55.0637 305.0764 14.79624519187968"}}, "geometry": {"type": "Point", "coordinates": [52.192426848696485, -46.56313332230237]}}, {"type": "Feature", "properties": {"norad_id": 54754, "name": "SWOT", "group": "resource", "lat": 66.14855078701284, "lon": 68.22240219450549, "alt_km": 886.3346188193109, "timestamp": "2025-12-19T08:58:48.995308+00:00", "meta": {"OBJECT_NAME": "SWOT", "OBJECT_ID": "2022-173A", "EPOCH": "2025-12-18T22:09:54.086688", "MEAN_MOTION": 14.00167779, "ECCENTRICITY": 3.647e-05, "INCLINATION": 77.6108, "RA_OF_ASC_NODE": 278.6423, "ARG_OF_PERICENTER": 96.1518, "MEAN_ANOMALY": 263.9675, "EPHEMERIS_TYPE": 0, "CLASSIFICATION_TYPE": "U", "NORAD_CAT_ID": 54754, "ELEMENT_SET_NO": 999, "REV_AT_EPOCH": 15392, "BSTAR": 3.6365772e-05, "MEAN_MOTION_DOT": 5.1e-07, "MEAN_MOTION_DDOT": 0}, "tle": {"line1": "1 54754U 22173A   25352.92354267  .00000051  00000+0  36366-4 0  9998", "line2": "2 54754  77.6108 278.6423 0000364  96.1518 263.9675 14.00167779153921"}}, "geometry": {"type": "Point", "coordinates": [68.22240219450549, 66.14855078701284]}}, {"type": "Feature", "properties": {"norad_id": 57654, "name": "GAOFEN-12 04", "group": "resource", "lat": 38.36164895982684, "lon": -97.2892974387979, "alt_km": 626.6795718193252, "timestamp": "2025-12-19T08:58:48.995318+00:00", "meta": {"OBJECT_NAME": "GAOFEN-12 04", "OBJECT_ID": "2023-123A", "EPOCH": "2025-12-18T23:04:04.891872", "MEAN_MOTION": 14.79717381, "ECCENTRICITY": 0.00012406, "INCLINATION": 97.9126, "RA_OF_ASC_NODE": 268.624, "ARG_OF_PERICENTER": 76.1935, "MEAN_ANOMALY": 283.9414, "EPHEMERIS_TYPE": 0, "CLASSIFICATION_TYPE": "U", "NORAD_CAT_ID": 57654, "ELEMENT_SET_NO": 999, "REV_AT_EPOCH": 12597, "BSTAR": 0.00014302381, "MEAN_MOTION_DOT": 1.023e-05, "MEAN_MOTION_DDOT": 0}, "tle": {"line1": "1 57654U 23123A   25352.96116773  .00001023  00000+0  14302-3 0  9993", "line2": "2 57654  97.9126 268.6240 0001240  76.1935 283.9414 14.79717381125972"}}, "geometry": {"type": "Point", "coordinates": [-97.2892974387979, 38.36164895982684]}}, {"type": "Feature", "properties": {"norad_id": 59065, "name": "PARS 1", "group": "resource", "lat": 78.85644447301362, "lon": -173.82868034878135, "alt_km": 429.7320863703799, "timestamp": "2025-12-19T08:58:48.995328+00:00", "meta": {"OBJECT_NAME": "PARS 1", "OBJECT_ID": "2024-039Q", "EPOCH": "2025-12-18T23:12:22.908384", "MEAN_MOTION": 15.41111256, "ECCENTRICITY": 0.00121741, "INCLINATION": 97.4635, "RA_OF_ASC_NODE": 324.0322, "ARG_OF_PERICENTER": 53.4847, "MEAN_ANOMALY": 306.7518, "EPHEMERIS_TYPE": 0, "CLASSIFICATION_TYPE": "U", "NORAD_CAT_ID": 59065, "ELEMENT_SET_NO": 999, "REV_AT_EPOCH": 10084, "BSTAR": 0.00023011266, "MEAN_MOTION_DOT": 9.46e-05, "MEAN_MOTION_DDOT": 0}, "tle": {"line1": "1 59065U 24039Q   25352.96693181  .00009460  00000+0  23011-3 0  9991", "line2": "2 59065  97.4635 324.0322 0012174  53.4847 306.7518 15.41111256100843"}}, "geometry": {"type": "Point", "coordinates": [-173.82868034878135, 78.85644447301362]}}, {"type": "Feature", "properties": {"norad_id": 59371, "name": "RESURS-P 4", "group": "resource", "lat": 26.613437384922122, "lon": -64.09179680025618, "alt_km": 467.91830002400457, "timestamp": "2025-12-19T08:58:48.995338+00:00", "meta": {"OBJECT_NAME": "RESURS-P 4", "OBJECT_ID": "2024-061A", "EPOCH": "2025-12-18T23:27:31.472640", "MEAN_MOTION": 15.32133227, "ECCENTRICITY": 0.00010834, "INCLINATION": 97.2552, "RA_OF_ASC_NODE": 299.1794, "ARG_OF_PERICENTER": 59.0473, "MEAN_ANOMALY": 301.0876, "EPHEMERIS_TYPE": 0, "CLASSIFICATION_TYPE": "U", "NORAD_CAT_ID": 59371, "ELEMENT_SET_NO": 999, "REV_AT_EPOCH": 9616, "BSTAR": 0.00010645829, "MEAN_MOTION_DOT": 3.227e-05, "MEAN_MOTION_DDOT": 0}, "tle": {"line1": "1 59371U 24061A   25352.97744760  .00003227  00000+0  10646-3 0  9992", "line2": "2 59371  97.2552 299.1794 0001083  59.0473 301.0876 15.32133227 96164"}}, "geometry": {"type": "Point", "coordinates": [-64.09179680025618, 26.613437384922122]}}, {"type": "Feature", "properties": {"norad_id": 59625, "name": "LEGION 1", "group": "resource", "lat": -59.33216576978121, "lon": -124.91737953892775, "alt_km": 521.7774633338213, "timestamp": "2025-12-19T08:58:48.995348+00:00", "meta": {"OBJECT_NAME": "LEGION 1", "OBJECT_ID": "2024-081A", "EPOCH": "2025-12-18T22:25:22.686240", "MEAN_MOTION": 15.16539116, "ECCENTRICITY": 0.00036573, "INCLINATION": 97.5212, "RA_OF_ASC_NODE": 67.5201, "ARG_OF_PERICENTER": 289.796, "MEAN_ANOMALY": 70.2879, "EPHEMERIS_TYPE": 0, "CLASSIFICATION_TYPE": "U", "NORAD_CAT_ID": 59625, "ELEMENT_SET_NO": 999, "REV_AT_EPOCH": 9021, "BSTAR": 0.00019448822, "MEAN_MOTION_DOT": 3.726e-05, "MEAN_MOTION_DDOT": 0}, "tle": {"line1": "1 59625U 24081A   25352.93429035  .00003726  00000+0  19449-3 0  9991", "line2": "2 59625  97.5212  67.5201 0003657 289.7960  70.2879 15.16539116 90211"}}, "geometry": {"type": "Point", "coordinates": [-124.91737953892775, -59.33216576978121]}}, {"type": "Feature", "properties": {"norad_id": 59626, "name": "LEGION 2", "group": "resource", "lat": 59.32491010990385, "lon": 55.17362054559872, "alt_km": 514.065021713428, "timestamp": "2025-12-19T08:58:48.995358+00:00", "meta": {"OBJECT_NAME": "LEGION 2", "OBJECT_ID": "2024-081B", "EPOCH": "2025-12-18T21:37:51.325536", "MEAN_MOTION": 15.1655105, "ECCENTRICITY": 0.00056216, "INCLINATION": 97.5215, "RA_OF_ASC_NODE": 67.5751, "ARG_OF_PERICENTER": 266.8054, "MEAN_ANOMALY": 93.2536, "EPHEMERIS_TYPE": 0, "CLASSIFICATION_TYPE": "U", "NORAD_CAT_ID": 59626, "ELEMENT_SET_NO": 999, "REV_AT_EPOCH": 9021, "BSTAR": 0.0002220258, "MEAN_MOTION_DOT": 4.265e-05, "MEAN_MOTION_DDOT": 0}, "tle": {"line1": "1 59626U 24081B   25352.90128849  .00004265  00000+0  22203-3 0  9999", "line2": "2 59626  97.5215  67.5751 0005621 266.8054  93.2536 15.16551050 90214"}}, "geometry": {"type": "Point", "coordinates": [55.17362054559872, 59.32491010990385]}}, {"type": "Feature", "properties": {"norad_id": 60182, "name": "ALOS-4 (DAICHI-4)", "group": "resource", "lat": -81.21612219168298, "lon": 152.4430755156869, "alt_km": 639.3060324138114, "timestamp": "2025-12-19T08:58:48.995370+00:00", "meta": {"OBJECT_NAME": "ALOS-4 (DAICHI-4)", "OBJECT_ID": "2024-123A", "EPOCH": "2025-12-18T22:00:26.051616", "MEAN_MOTION": 14.79471696, "ECCENTRICITY": 0.00013855, "INCLINATION": 97.9224, "RA_OF_ASC_NODE": 87.6761, "ARG_OF_PERICENTER": 101.7018, "MEAN_ANOMALY": 258.4349, "EPHEMERIS_TYPE": 0, "CLASSIFICATION_TYPE": "U", "NORAD_CAT_ID": 60182, "ELEMENT_SET_NO": 999, "REV_AT_EPOCH": 7922, "BSTAR": 0.00022369546, "MEAN_MOTION_DOT": 1.62e-05, "MEAN_MOTION_DDOT": 0}, "tle": {"line1": "1 60182U 24123A   25352.91696819  .00001620  00000+0  22370-3 0  9990", "line2": "2 60182  97.9224  87.6761 0001385 101.7018 258.4349 14.79471696 79221"}}, "geometry": {"type": "Point", "coordinates": [152.4430755156869, -81.21612219168298]}}, {"type": "Feature", "properties": {"norad_id": 60452, "name": "LEGION 3", "group": "resource", "lat": 19.555213921684036, "lon": 73.7443222640767, "alt_km": 514.2728864320206, "timestamp": "2025-12-19T08:58:48.995382+00:00", "meta": {"OBJECT_NAME": "LEGION 3", "OBJECT_ID": "2024-146A", "EPOCH": "2025-12-18T21:14:29.056128", "MEAN_MOTION": 15.15824429, "ECCENTRICITY": 0.00155703, "INCLINATION": 45.0023, "RA_OF_ASC_NODE": 277.1872, "ARG_OF_PERICENTER": 231.8493, "MEAN_ANOMALY": 128.0983, "EPHEMERIS_TYPE": 0, "CLASSIFICATION_TYPE": "U", "NORAD_CAT_ID": 60452, "ELEMENT_SET_NO": 999, "REV_AT_EPOCH": 7466, "BSTAR": 0.00020352446, "MEAN_MOTION_DOT": 3.702e-05, "MEAN_MOTION_DDOT": 0}, "tle": {"line1": "1 60452U 24146A   25352.88505852  .00003702  00000+0  20352-3 0  9998", "line2": "2 60452  45.0023 277.1872 0015570 231.8493 128.0983 15.15824429 74660"}}, "geometry": {"type": "Point", "coordinates": [73.7443222640767, 19.555213921684036]}}, {"type": "Feature", "properties": {"norad_id": 60453, "name": "LEGION 4", "group": "resource", "lat": 20.606327841461415, "lon": 164.26471635118682, "alt_km": 521.1532038924142, "timestamp": "2025-12-19T08:58:48.995392+00:00", "meta": {"OBJECT_NAME": "LEGION 4", "OBJECT_ID": "2024-146B", "EPOCH": "2025-12-18T21:15:00.617184", "MEAN_MOTION": 15.15886403, "ECCENTRICITY": 0.00089144, "INCLINATION": 45.0396, "RA_OF_ASC_NODE": 8.9551, "ARG_OF_PERICENTER": 343.5927, "MEAN_ANOMALY": 16.4663, "EPHEMERIS_TYPE": 0, "CLASSIFICATION_TYPE": "U", "NORAD_CAT_ID": 60453, "ELEMENT_SET_NO": 999, "REV_AT_EPOCH": 7351, "BSTAR": 0.0002049792, "MEAN_MOTION_DOT": 3.73e-05, "MEAN_MOTION_DDOT": 0}, "tle": {"line1": "1 60453U 24146B   25352.88542381  .00003730  00000+0  20498-3 0  9999", "line2": "2 60453  45.0396   8.9551 0008914 343.5927  16.4663 15.15886403 73513"}}, "geometry": {"type": "Point", "coordinates": [164.26471635118682, 20.606327841461415]}}]}